[{"OBJECT_NAME":"ALOS (DAICHI)","OBJECT_ID":"2006-002A","EPOCH":"2026-03-30T11:17:00.667104","MEAN_MOTION":14.69874105,"ECCENTRICITY":9.188e-5,"INCLINATION":98.1251,"RA_OF_ASC_NODE":45.3268,"ARG_OF_PERICENTER":109.9776,"MEAN_ANOMALY":250.1529,"EPHEMERIS_TYPE":0,"CLASSIFICATION_TYPE":"U","NORAD_CAT_ID":28931,"ELEMENT_SET_NO":999,"REV_AT_EPOCH":7653,"BSTAR":0.00029771528,"MEAN_MOTION_DOT":1.731e-5,"MEAN_MOTION_DDOT":0},{"OBJECT_NAME":"H-2A R/B","OBJECT_ID":"2006-002B","EPOCH":"2026-03-30T09:24:09.764352","MEAN_MOTION":15.16885803,"ECCENTRICITY":0.0052456,"INCLINATION":98.2444,"RA_OF_ASC_NODE":238.2081,"ARG_OF_PERICENTER":170.2321,"MEAN_ANOMALY":189.9943,"EPHEMERIS_TYPE":0,"CLASSIFICATION_TYPE":"U","NORAD_CAT_ID":28932,"ELEMENT_SET_NO":999,"REV_AT_EPOCH":9757,"BSTAR":0.00068904,"MEAN_MOTION_DOT":0.00013995,"MEAN_MOTION_DDOT":0},{"OBJECT_NAME":"RESURS-DK 1","OBJECT_ID":"2006-021A","EPOCH":"2026-03-30T13:29:09.712608","MEAN_MOTION":15.12874434,"ECCENTRICITY":0.00013938,"INCLINATION":69.9339,"RA_OF_ASC_NODE":183.0312,"ARG_OF_PERICENTER":48.1234,"MEAN_ANOMALY":312.005,"EPHEMERIS_TYPE":0,"CLASSIFICATION_TYPE":"U","NORAD_CAT_ID":29228,"ELEMENT_SET_NO":999,"REV_AT_EPOCH":9068,"BSTAR":0.00017698687,"MEAN_MOTION_DOT":3.014e-5,"MEAN_MOTION_DDOT":0},{"OBJECT_NAME":"CZ-4B R/B","OBJECT_ID":"2006-046C","EPOCH":"2026-03-30T09:17:18.785472","MEAN_MOTION":15.17114726,"ECCENTRICITY":0.00328537,"INCLINATION":97.5555,"RA_OF_ASC_NODE":134.2388,"ARG_OF_PERICENTER":193.0829,"MEAN_ANOMALY":166.9555,"EPHEMERIS_TYPE":0,"CLASSIFICATION_TYPE":"U","NORAD_CAT_ID":29507,"ELEMENT_SET_NO":999,"REV_AT_EPOCH":6318,"BSTAR":0.00032723415,"MEAN_MOTION_DOT":6.508e-5,"MEAN_MOTION_DDOT":0},{"OBJECT_NAME":"CZ-2C R/B","OBJECT_ID":"2007-010B","EPOCH":"2026-03-30T13:53:59.990784","MEAN_MOTION":14.20253869,"ECCENTRICITY":0.00581358,"INCLINATION":98.4001,"RA_OF_ASC_NODE":201.8132,"ARG_OF_PERICENTER":232.731,"MEAN_ANOMALY":126.8558,"EPHEMERIS_TYPE":0,"CLASSIFICATION_TYPE":"U","NORAD_CAT_ID":31114,"ELEMENT_SET_NO":999,"REV_AT_EPOCH":98268,"BSTAR":9.6955543e-5,"MEAN_MOTION_DOT":1.69e-6,"MEAN_MOTION_DDOT":0},{"OBJECT_NAME":"COSMO-SKYMED 1","OBJECT_ID":"2007-023A","EPOCH":"2026-03-30T14:11:27.156192","MEAN_MOTION":14.96687194,"ECCENTRICITY":0.00010954,"INCLINATION":97.8869,"RA_OF_ASC_NODE":280.7941,"ARG_OF_PERICENTER":103.008,"MEAN_ANOMALY":257.1264,"EPHEMERIS_TYPE":0,"CLASSIFICATION_TYPE":"U","NORAD_CAT_ID":31598,"ELEMENT_SET_NO":999,"REV_AT_EPOCH":1803,"BSTAR":0.00042628206,"MEAN_MOTION_DOT":4.807e-5,"MEAN_MOTION_DDOT":0},{"OBJECT_NAME":"COSMOS 2428","OBJECT_ID":"2007-029A","EPOCH":"2026-03-30T13:27:35.637696","MEAN_MOTION":14.12948512,"ECCENTRICITY":0.0009713,"INCLINATION":70.943,"RA_OF_ASC_NODE":159.5394,"ARG_OF_PERICENTER":255.5249,"MEAN_ANOMALY":104.4795,"EPHEMERIS_TYPE":0,"CLASSIFICATION_TYPE":"U","NORAD_CAT_ID":31792,"ELEMENT_SET_NO":999,"REV_AT_EPOCH":96704,"BSTAR":1.5815218e-5,"MEAN_MOTION_DOT":-1.8e-7,"MEAN_MOTION_DDOT":0},{"OBJECT_NAME":"SL-16 R/B","OBJECT_ID":"2007-029B","EPOCH":"2026-03-30T13:57:36.489312","MEAN_MOTION":14.14843662,"ECCENTRICITY":0.0002785,"INCLINATION":70.9746,"RA_OF_ASC_NODE":128.4698,"ARG_OF_PERICENTER":277.8941,"MEAN_ANOMALY":244.8407,"EPHEMERIS_TYPE":0,"CLASSIFICATION_TYPE":"U","NORAD_CAT_ID":31793,"ELEMENT_SET_NO":999,"REV_AT_EPOCH":96832,"BSTAR":1.6505451e-5,"MEAN_MOTION_DOT":-1.6e-7,"MEAN_MOTION_DDOT":0},{"OBJECT_NAME":"KORONAS-FOTON","OBJECT_ID":"2009-003A","EPOCH":"2026-03-30T12:12:35.566272","MEAN_MOTION":15.43890614,"ECCENTRICITY":0.00116711,"INCLINATION":82.4274,"RA_OF_ASC_NODE":254.2214,"ARG_OF_PERICENTER":82.0695,"MEAN_ANOMALY":278.1877,"EPHEMERIS_TYPE":0,"CLASSIFICATION_TYPE":"U","NORAD_CAT_ID":33504,"ELEMENT_SET_NO":999,"REV_AT_EPOCH":94895,"BSTAR":0.00039658703,"MEAN_MOTION_DOT":0.000181,"MEAN_MOTION_DDOT":0},{"OBJECT_NAME":"CZ-2C R/B","OBJECT_ID":"2011-030B","EPOCH":"2026-03-30T11:55:22.274976","MEAN_MOTION":14.8129561,"ECCENTRICITY":0.00510319,"INCLINATION":97.8579,"RA_OF_ASC_NODE":46.3492,"ARG_OF_PERICENTER":283.1622,"MEAN_ANOMALY":199.2649,"EPHEMERIS_TYPE":0,"CLASSIFICATION_TYPE":"U","NORAD_CAT_ID":37731,"ELEMENT_SET_NO":999,"REV_AT_EPOCH":79317,"BSTAR":0.00024179587,"MEAN_MOTION_DOT":1.873e-5,"MEAN_MOTION_DDOT":0},{"OBJECT_NAME":"H-2A R/B","OBJECT_ID":"2012-025E","EPOCH":"2026-03-30T11:22:00.813792","MEAN_MOTION":14.95316131,"ECCENTRICITY":0.00428306,"INCLINATION":98.4766,"RA_OF_ASC_NODE":58.1904,"ARG_OF_PERICENTER":244.0709,"MEAN_ANOMALY":115.6093,"EPHEMERIS_TYPE":0,"CLASSIFICATION_TYPE":"U","NORAD_CAT_ID":38341,"ELEMENT_SET_NO":999,"REV_AT_EPOCH":75132,"BSTAR":0.00036207107,"MEAN_MOTION_DOT":3.994e-5,"MEAN_MOTION_DDOT":0},{"OBJECT_NAME":"SHIJIAN-16 (SJ-16)","OBJECT_ID":"2013-057A","EPOCH":"2026-03-30T14:40:41.939328","MEAN_MOTION":14.9242679,"ECCENTRICITY":0.00152954,"INCLINATION":74.9725,"RA_OF_ASC_NODE":145.4828,"ARG_OF_PERICENTER":58.2722,"MEAN_ANOMALY":301.9954,"EPHEMERIS_TYPE":0,"CLASSIFICATION_TYPE":"U","NORAD_CAT_ID":39358,"ELEMENT_SET_NO":999,"REV_AT_EPOCH":67462,"BSTAR":0.00013666612,"MEAN_MOTION_DOT":1.374e-5,"MEAN_MOTION_DDOT":0},{"OBJECT_NAME":"SL-4 R/B","OBJECT_ID":"2014-021B","EPOCH":"2026-03-30T03:23:14.581536","MEAN_MOTION":15.39903339,"ECCENTRICITY":0.0095266,"INCLINATION":51.6054,"RA_OF_ASC_NODE":237.4532,"ARG_OF_PERICENTER":177.5547,"MEAN_ANOMALY":182.5922,"EPHEMERIS_TYPE":0,"CLASSIFICATION_TYPE":"U","NORAD_CAT_ID":39679,"ELEMENT_SET_NO":999,"REV_AT_EPOCH":65942,"BSTAR":0.00050981,"MEAN_MOTION_DOT":0.00023819,"MEAN_MOTION_DDOT":0},{"OBJECT_NAME":"ALOS-2","OBJECT_ID":"2014-029A","EPOCH":"2026-03-30T13:11:30.676704","MEAN_MOTION":14.7945687,"ECCENTRICITY":0.00018587,"INCLINATION":97.9189,"RA_OF_ASC_NODE":187.8434,"ARG_OF_PERICENTER":104.1815,"MEAN_ANOMALY":255.9604,"EPHEMERIS_TYPE":0,"CLASSIFICATION_TYPE":"U","NORAD_CAT_ID":39766,"ELEMENT_SET_NO":999,"REV_AT_EPOCH":63995,"BSTAR":0.00050154611,"MEAN_MOTION_DOT":3.695e-5,"MEAN_MOTION_DDOT":0},{"OBJECT_NAME":"YAOGAN-29","OBJECT_ID":"2015-069A","EPOCH":"2026-03-30T13:49:04.025856","MEAN_MOTION":14.83019477,"ECCENTRICITY":3.294e-5,"INCLINATION":98.0117,"RA_OF_ASC_NODE":118.0588,"ARG_OF_PERICENTER":356.4376,"MEAN_ANOMALY":3.6835,"EPHEMERIS_TYPE":0,"CLASSIFICATION_TYPE":"U","NORAD_CAT_ID":41038,"ELEMENT_SET_NO":999,"REV_AT_EPOCH":55897,"BSTAR":0.00012506887,"MEAN_MOTION_DOT":9.63e-6,"MEAN_MOTION_DDOT":0},{"OBJECT_NAME":"ASTRO-H (HITOMI)","OBJECT_ID":"2016-012A","EPOCH":"2026-03-30T14:06:18.689184","MEAN_MOTION":15.10137543,"ECCENTRICITY":0.00096107,"INCLINATION":30.9991,"RA_OF_ASC_NODE":221.6731,"ARG_OF_PERICENTER":182.0837,"MEAN_ANOMALY":177.9762,"EPHEMERIS_TYPE":0,"CLASSIFICATION_TYPE":"U","NORAD_CAT_ID":41337,"ELEMENT_SET_NO":999,"REV_AT_EPOCH":55539,"BSTAR":0.00024690034,"MEAN_MOTION_DOT":4.225e-5,"MEAN_MOTION_DDOT":0}]
